NORAD_CAT_ID,OBJECT_NAME,OBJECT_TYPE,EPOCH,MEAN_MOTION,ECCENTRICITY,INCLINATION,RA_OF_ASC_NODE,ARG_OF_PERICENTER,MEAN_ANOMALY,BSTAR,MEAN_MOTION_DOT,MEAN_MOTION_DDOT,TLE_LINE0,TLE_LINE1,TLE_LINE2,SEMIMAJOR_AXIS,PERIOD,APOGEE,PERIGEE,DECAYED
53162.0,STARLINK-4114,PAYLOAD,2023-05-23 02:13:30,15.08852896,0.0001166,53.2169,70.2549,90.7247,269.3879,6.9088e-05,8.12e-06,0.0,0 STARLINK-4114,1 53162U 22083AG  23143.09271016  .00000812  00000-0  69088-4 0  9997,2 53162  53.2169  70.2549 0001166  90.7247 269.3879 15.08852896 47765,6917.841,95.437,540.513,538.899,0.0
53162.0,STARLINK-4114,PAYLOAD,2023-05-23 05:24:16,15.0885279,0.0001233,53.2166,69.6598,94.2524,265.8609,0.00017926,2.567e-05,0.0,0 STARLINK-4114,1 53162U 22083AG  23143.22519073  .00002567  00000-0  17926-3 0  9992,2 53162  53.2166  69.6598 0001233  94.2524 265.8609 15.08852790 47158,6917.841,95.437,540.559,538.853,0.0
53162.0,STARLINK-4114,PAYLOAD,2023-05-24 02:04:18,15.08833184,0.0001155,53.2172,65.7946,92.7446,267.3678,0.00015338,2.154e-05,0.0,0 STARLINK-4114,1 53162U 22083AG  23144.08632468  .00002154  00000-0  15338-3 0  9998,2 53162  53.2172  65.7946 0001155  92.7446 267.3678 15.08833184 47911,6917.901,95.438,540.565,538.967,0.0
53162.0,STARLINK-4114,PAYLOAD,2023-05-25 22:35:06,15.08840156,0.0001145,53.2157,57.4693,88.0888,272.0236,0.000147,2.052e-05,0.0,0 STARLINK-4114,1 53162U 22083AG  23145.94104265  .00002052  00000-0  14700-3 0  9992,2 53162  53.2157  57.4693 0001145  88.0888 272.0236 15.08840156 47569,6917.88,95.438,540.537,538.953,0.0
53162.0,STARLINK-4114,PAYLOAD,2023-05-26 03:21:15,15.08846748,0.0001201,53.2159,56.5772,92.7787,267.3342,0.0002287,3.354e-05,0.0,0 STARLINK-4114,1 53162U 22083AG  23146.13975931  .00003354  00000-0  22870-3 0  9993,2 53162  53.2159  56.5772 0001201  92.7787 267.3342 15.08846748 48224,6917.86,95.437,540.556,538.894,0.0
53162.0,STARLINK-4114,PAYLOAD,2023-05-27 00:01:16,15.08837086,0.0001404,53.2189,52.7003,99.2882,260.8269,-6.4596e-06,-3.91e-06,0.0,0 STARLINK-4114,1 53162U 22083AG  23147.00088677 -.00000391  00000-0 -64596-5 0  9995,2 53162  53.2189  52.7003 0001404  99.2882 260.8269 15.08837086 48350,6917.889,95.438,540.726,538.783,0.0
53162.0,STARLINK-4114,PAYLOAD,2023-05-27 20:41:17,15.08840335,0.0001733,53.2176,48.8409,132.5745,227.5393,0.00016678,2.367e-05,0.0,0 STARLINK-4114,1 53162U 22083AG  23147.86200262  .00002367  00000-0  16678-3 0  9994,2 53162  53.2176  48.8409 0001733 132.5745 227.5393 15.08840335 47859,6917.879,95.438,540.943,538.545,0.0
53162.0,STARLINK-4114,PAYLOAD,2023-05-27 23:52:03,15.08849926,0.000124,53.2184,48.2475,98.6037,261.5096,5.2403e-05,5.46e-06,0.0,0 STARLINK-4114,1 53162U 22083AG  23147.99448159  .00000546  00000-0  52403-4 0  9991,2 53162  53.2184  48.2475 0001240  98.6037 261.5096 15.08849926 48500,6917.85,95.437,540.573,538.857,0.0
53162.0,STARLINK-4114,PAYLOAD,2023-05-28 20:32:04,15.08842697,0.0001167,53.217,44.3849,83.5911,276.5214,0.00014494,2.02e-05,0.0,0 STARLINK-4114,1 53162U 22083AG  23148.85560680  .00002020  00000-0  14494-3 0  9997,2 53162  53.2170  44.3849 0001167  83.5911 276.5214 15.08842697 48000,6917.872,95.437,540.544,538.93,0.0
53162.0,STARLINK-4114,PAYLOAD,2023-05-29 02:53:36,15.08847384,0.0001192,53.2171,43.1945,86.1092,274.0036,0.00019197,2.769e-05,0.0,0 STARLINK-4114,1 53162U 22083AG  23149.12056369  .00002769  00000-0  19197-3 0  9997,2 53162  53.2171  43.1945 0001192  86.1092 274.0036 15.08847384 48678,6917.858,95.437,540.547,538.898,0.0
53162.0,STARLINK-4114,PAYLOAD,2023-05-29 20:22:51,15.08834833,0.0001235,53.2178,39.9215,98.8525,261.2607,-6.2917e-05,-1.289e-05,0.0,0 STARLINK-4114,1 53162U 22083AG  23149.84920986 -.00001289  00000-0 -62917-4 0  9998,2 53162  53.2178  39.9215 0001235  98.8525 261.2607 15.08834833 48157,6917.896,95.438,540.616,538.907,0.0
53162.0,STARLINK-4114,PAYLOAD,2023-05-29 23:33:37,15.08839949,0.0001126,53.2174,39.3301,93.5645,266.5475,4.2544e-05,3.89e-06,0.0,0 STARLINK-4114,1 53162U 22083AG  23149.98168929  .00000389  00000-0  42544-4 0  9996,2 53162  53.2174  39.3301 0001126  93.5645 266.5475 15.08839949 48803,6917.881,95.438,540.524,538.967,0.0
53162.0,STARLINK-4114,PAYLOAD,2023-05-30 21:49:01,15.08841838,0.0001126,53.2168,35.1668,96.2174,263.8947,6.207e-05,7e-06,0.0,0 STARLINK-4114,1 53162U 22083AG  23150.90904773  .00000700  00000-0  62070-4 0  9998,2 53162  53.2168  35.1668 0001126  96.2174 263.8947 15.08841838 48313,6917.875,95.437,540.519,538.961,0.0
53162.0,STARLINK-4114,PAYLOAD,2023-05-31 02:35:10,15.08846389,0.0001127,53.2167,34.2745,97.9442,262.1678,0.00012491,1.701e-05,0.0,0 STARLINK-4114,1 53162U 22083AG  23151.10776527  .00001701  00000-0  12491-3 0  9998,2 53162  53.2167  34.2745 0001127  97.9442 262.1678 15.08846389 48976,6917.861,95.437,540.506,538.946,0.0
53162.0,STARLINK-4114,PAYLOAD,2023-05-31 16:53:39,15.08838648,0.0001123,53.2167,31.5986,99.1063,261.0056,7.4781e-05,9.02e-06,0.0,0 STARLINK-4114,1 53162U 22083AG  23151.70393070  .00000902  00000-0  74781-4 0  9995,2 53162  53.2167  31.5986 0001123  99.1063 261.0056 15.08838648 49060,6917.885,95.438,540.526,538.973,0.0
53162.0,STARLINK-4114,PAYLOAD,2023-05-31 21:39:48,15.08840425,0.0001133,53.2167,30.7066,98.9621,261.15,9.092e-05,1.159e-05,0.0,0 STARLINK-4114,1 53162U 22083AG  23151.90264992  .00001159  00000-0  90920-4 0  9995,2 53162  53.2167  30.7066 0001133  98.9621 261.1500 15.08840425 48462,6917.879,95.438,540.528,538.96,0.0
53162.0,STARLINK-4114,PAYLOAD,2023-06-01 00:50:35,15.08843713,0.0001144,53.2168,30.1116,96.4457,263.6666,0.00012964,1.776e-05,0.0,0 STARLINK-4114,1 53162U 22083AG  23152.03512819  .00001776  00000-0  12964-3 0  9990,2 53162  53.2168  30.1116 0001144  96.4457 263.6666 15.08843713 48480,6917.869,95.437,540.525,538.943,0.0
53162.0,STARLINK-4114,PAYLOAD,2023-06-01 21:30:36,15.08840545,0.0001137,53.2167,26.2459,92.6995,267.4127,5.3319e-05,5.61e-06,0.0,0 STARLINK-4114,1 53162U 22083AG  23152.89625037  .00000561  00000-0  53319-4 0  9992,2 53162  53.2167  26.2459 0001137  92.6995 267.4127 15.08840545 48611,6917.879,95.438,540.53,538.957,0.0
53162.0,STARLINK-4114,PAYLOAD,2023-06-01 23:05:59,15.08841806,0.0001147,53.2166,25.9485,92.9635,267.1488,7.0136e-05,8.29e-06,0.0,0 STARLINK-4114,1 53162U 22083AG  23152.96248964  .00000829  00000-0  70136-4 0  9993,2 53162  53.2166  25.9485 0001147  92.9635 267.1488 15.08841806 49259,6917.875,95.437,540.533,538.946,0.0
53162.0,STARLINK-4114,PAYLOAD,2023-06-02 14:59:50,15.08836468,0.0001203,53.2164,22.9753,90.5896,269.5234,6.0599e-05,6.77e-06,0.0,0 STARLINK-4114,1 53162U 22083AG  23153.62489404  .00000677  00000-0  60599-4 0  9996,2 53162  53.2164  22.9753 0001203  90.5896 269.5234 15.08836468 49352,6917.891,95.438,540.588,538.924,0.0
53162.0,STARLINK-4114,PAYLOAD,2023-06-02 21:21:23,15.08838298,0.0001181,53.2163,21.7856,95.7968,264.3159,2.9992e-05,1.9e-06,0.0,0 STARLINK-4114,1 53162U 22083AG  23153.88985346  .00000190  00000-0  29992-4 0  9992,2 53162  53.2163  21.7856 0001181  95.7968 264.3159 15.08838298 48760,6917.886,95.438,540.568,538.934,0.0
53162.0,STARLINK-4114,PAYLOAD,2023-06-03 00:32:09,15.08842389,0.0001168,53.217,21.1905,95.9146,264.198,6.3502e-05,7.23e-06,0.0,0 STARLINK-4114,1 53162U 22083AG  23154.02233258  .00000723  00000-0  63502-4 0  9994,2 53162  53.2170  21.1905 0001168  95.9146 264.1980 15.08842389 48780,6917.873,95.437,540.546,538.93,0.0
53162.0,STARLINK-4114,PAYLOAD,2023-06-03 21:12:10,15.08843857,0.0001162,53.2169,17.3242,98.064,262.0484,0.00013129,1.802e-05,0.0,0 STARLINK-4114,1 53162U 22083AG  23154.88344928  .00001802  00000-0  13129-3 0  9993,2 53162  53.2169  17.3242 0001162  98.0640 262.0484 15.08843857 48918,6917.869,95.437,540.537,538.93,0.0
53162.0,STARLINK-4114,PAYLOAD,2023-06-04 00:22:56,15.08847457,0.0001194,53.2168,16.7293,97.7098,262.403,0.00015979,2.257e-05,0.0,0 STARLINK-4114,1 53162U 22083AG  23155.01592625  .00002257  00000-0  15979-3 0  9998,2 53162  53.2168  16.7293 0001194  97.7098 262.4030 15.08847457 49567,6917.858,95.437,540.549,538.897,0.0
53162.0,STARLINK-4114,PAYLOAD,2023-06-04 14:41:25,15.08835866,0.00012,53.2168,14.0519,101.2508,258.862,1.9335e-05,2e-07,0.0,0 STARLINK-4114,1 53162U 22083AG  23155.61209769  .00000020  00000-0  19335-4 0  9995,2 53162  53.2168  14.0519 0001200 101.2508 258.8620 15.08835866 49020,6917.893,95.438,540.588,538.928,0.0
53162.0,STARLINK-4114,PAYLOAD,2023-06-04 19:27:34,15.08839313,0.000118,53.2172,13.1608,95.951,264.1616,6.0016e-05,6.67e-06,0.0,0 STARLINK-4114,1 53162U 22083AG  23155.81081496  .00000667  00000-0  60016-4 0  9991,2 53162  53.2172  13.1608 0001180  95.9510 264.1616 15.08839313 49681,6917.882,95.438,540.564,538.931,0.0
53162.0,STARLINK-4114,PAYLOAD,2023-06-04 21:02:57,15.08840432,0.0001118,53.2171,12.8634,91.0569,269.0551,7.1796e-05,8.55e-06,0.0,0 STARLINK-4114,1 53162U 22083AG  23155.87705425  .00000855  00000-0  71796-4 0  9998,2 53162  53.2171  12.8634 0001118  91.0569 269.0551 15.08840432 49065,6917.879,95.438,540.517,538.971,0.0
53162.0,STARLINK-4114,PAYLOAD,2023-06-05 00:13:43,15.08841387,0.0001109,53.2175,12.2685,91.8814,268.2305,7.1762e-05,8.55e-06,0.0,0 STARLINK-4114,1 53162U 22083AG  23156.00953376  .00000855  00000-0  71762-4 0  9997,2 53162  53.2175  12.2685 0001109  91.8814 268.2305 15.08841387 49080,6917.876,95.437,540.508,538.974,0.0
53162.0,STARLINK-4114,PAYLOAD,2023-06-05 19:18:21,15.08845589,0.0001117,53.2169,8.7008,87.3087,272.8033,4.4961e-05,4.28e-06,0.0,0 STARLINK-4114,1 53162U 22083AG  23156.80441250  .00000428  00000-0  44961-4 0  9995,2 53162  53.2169   8.7008 0001117  87.3087 272.8033 15.08845589 49204,6917.863,95.437,540.501,538.956,0.0
53162.0,STARLINK-4114,PAYLOAD,2023-06-06 00:04:30,15.08847211,0.0001158,53.2166,7.8082,88.047,272.0655,0.00011716,1.578e-05,0.0,0 STARLINK-4114,1 53162U 22083AG  23157.00313148  .00001578  00000-0  11716-3 0  9990,2 53162  53.2166   7.8082 0001158  88.0470 272.0655 15.08847211 49860,6917.858,95.437,540.524,538.922,0.0
